[{"OBJECT_NAME":"STARLINK-31440","OBJECT_ID":"2024-036B","EPOCH":"2026-03-09T08:11:46.768128","MEAN_MOTION":15.30189209,"ECCENTRICITY":0.00012019,"INCLINATION":53.1609,"RA_OF_ASC_NODE":79.4817,"ARG_OF_PERICENTER":94.6236,"MEAN_ANOMALY":265.4902,"EPHEMERIS_TYPE":0,"CLASSIFICATION_TYPE":"U","NORAD_CAT_ID":58999,"ELEMENT_SET_NO":999,"REV_AT_EPOCH":11446,"BSTAR":-7.488561e-6,"MEAN_MOTION_DOT":-5.81e-6,"MEAN_MOTION_DDOT":0},{"OBJECT_NAME":"LUR-1","OBJECT_ID":"2024-149AQ","EPOCH":"2026-03-09T19:05:45.284064","MEAN_MOTION":15.28658648,"ECCENTRICITY":0.00027765,"INCLINATION":97.379,"RA_OF_ASC_NODE":148.4255,"ARG_OF_PERICENTER":309.1571,"MEAN_ANOMALY":50.9421,"EPHEMERIS_TYPE":0,"CLASSIFICATION_TYPE":"U","NORAD_CAT_ID":60506,"ELEMENT_SET_NO":999,"REV_AT_EPOCH":8678,"BSTAR":0.0003298462,"MEAN_MOTION_DOT":9.121e-5,"MEAN_MOTION_DDOT":0}]
