STARLINK-31440          
1 58999U 24036B   26068.34151352 -.00000581  00000+0 -74886-5 0  9994
2 58999  53.1609  79.4817 0001201  94.6236 265.4902 15.30189209114468
LUR-1                   
1 60506U 24149AQ  26068.79566301  .00009121  00000+0  32985-3 0  9998
2 60506  97.3790 148.4255 0002777 309.1571  50.9421 15.28658648 86785
